{
  "type": "FeatureCollection",
  "note": "Area-level risk priors for the demo bbox, approximated from published Delhi Police district/station aggregates for crimes against women. These are neighbourhood priors, not street-level incident reports. Edit weight (0-1) and radius (metres) to retune; the server reads this file at boot.",
  "features": [
    { "type": "Feature", "properties": { "name": "Paharganj", "weight": 0.72, "radius": 700 }, "geometry": { "type": "Point", "coordinates": [77.2120, 28.6440] } },
    { "type": "Feature", "properties": { "name": "New Delhi Railway Station", "weight": 0.66, "radius": 600 }, "geometry": { "type": "Point", "coordinates": [77.2196, 28.6425] } },
    { "type": "Feature", "properties": { "name": "Kashmere Gate", "weight": 0.63, "radius": 700 }, "geometry": { "type": "Point", "coordinates": [77.2280, 28.6675] } },
    { "type": "Feature", "properties": { "name": "Sarai Kale Khan", "weight": 0.61, "radius": 800 }, "geometry": { "type": "Point", "coordinates": [77.2565, 28.5885] } },
    { "type": "Feature", "properties": { "name": "Daryaganj", "weight": 0.55, "radius": 650 }, "geometry": { "type": "Point", "coordinates": [77.2400, 28.6440] } },
    { "type": "Feature", "properties": { "name": "Jama Masjid", "weight": 0.54, "radius": 600 }, "geometry": { "type": "Point", "coordinates": [77.2334, 28.6507] } },
    { "type": "Feature", "properties": { "name": "Chandni Chowk", "weight": 0.52, "radius": 650 }, "geometry": { "type": "Point", "coordinates": [77.2301, 28.6562] } },
    { "type": "Feature", "properties": { "name": "Karol Bagh", "weight": 0.5, "radius": 750 }, "geometry": { "type": "Point", "coordinates": [77.1900, 28.6519] } },
    { "type": "Feature", "properties": { "name": "Nizamuddin", "weight": 0.5, "radius": 700 }, "geometry": { "type": "Point", "coordinates": [77.2430, 28.5915] } },
    { "type": "Feature", "properties": { "name": "Jhandewalan", "weight": 0.47, "radius": 600 }, "geometry": { "type": "Point", "coordinates": [77.2010, 28.6440] } },
    { "type": "Feature", "properties": { "name": "Rajghat riverside", "weight": 0.46, "radius": 800 }, "geometry": { "type": "Point", "coordinates": [77.2495, 28.6410] } },
    { "type": "Feature", "properties": { "name": "ITO", "weight": 0.44, "radius": 650 }, "geometry": { "type": "Point", "coordinates": [77.2410, 28.6289] } },
    { "type": "Feature", "properties": { "name": "Patel Nagar", "weight": 0.43, "radius": 750 }, "geometry": { "type": "Point", "coordinates": [77.1670, 28.6520] } },
    { "type": "Feature", "properties": { "name": "Rajendra Nagar", "weight": 0.4, "radius": 700 }, "geometry": { "type": "Point", "coordinates": [77.1800, 28.6400] } },
    { "type": "Feature", "properties": { "name": "Pragati Maidan surrounds", "weight": 0.38, "radius": 700 }, "geometry": { "type": "Point", "coordinates": [77.2450, 28.6180] } },
    { "type": "Feature", "properties": { "name": "Inderpuri", "weight": 0.37, "radius": 700 }, "geometry": { "type": "Point", "coordinates": [77.1580, 28.6280] } },
    { "type": "Feature", "properties": { "name": "Dhaula Kuan", "weight": 0.36, "radius": 800 }, "geometry": { "type": "Point", "coordinates": [77.1610, 28.5920] } },
    { "type": "Feature", "properties": { "name": "Sarojini Nagar", "weight": 0.34, "radius": 650 }, "geometry": { "type": "Point", "coordinates": [77.1960, 28.5760] } },
    { "type": "Feature", "properties": { "name": "Connaught Place", "weight": 0.33, "radius": 600 }, "geometry": { "type": "Point", "coordinates": [77.2167, 28.6315] } },
    { "type": "Feature", "properties": { "name": "R K Puram", "weight": 0.32, "radius": 750 }, "geometry": { "type": "Point", "coordinates": [77.1750, 28.5650] } },
    { "type": "Feature", "properties": { "name": "Mandir Marg", "weight": 0.3, "radius": 650 }, "geometry": { "type": "Point", "coordinates": [77.1980, 28.6360] } },
    { "type": "Feature", "properties": { "name": "INA", "weight": 0.29, "radius": 600 }, "geometry": { "type": "Point", "coordinates": [77.2090, 28.5750] } },
    { "type": "Feature", "properties": { "name": "Safdarjung Enclave", "weight": 0.27, "radius": 700 }, "geometry": { "type": "Point", "coordinates": [77.1950, 28.5640] } },
    { "type": "Feature", "properties": { "name": "Moti Bagh", "weight": 0.26, "radius": 700 }, "geometry": { "type": "Point", "coordinates": [77.1720, 28.5780] } },
    { "type": "Feature", "properties": { "name": "India Gate lawns", "weight": 0.24, "radius": 700 }, "geometry": { "type": "Point", "coordinates": [77.2295, 28.6129] } },
    { "type": "Feature", "properties": { "name": "Lodhi Colony", "weight": 0.22, "radius": 650 }, "geometry": { "type": "Point", "coordinates": [77.2210, 28.5830] } },
    { "type": "Feature", "properties": { "name": "Chanakyapuri", "weight": 0.21, "radius": 800 }, "geometry": { "type": "Point", "coordinates": [77.1870, 28.5920] } },
    { "type": "Feature", "properties": { "name": "Khan Market", "weight": 0.18, "radius": 550 }, "geometry": { "type": "Point", "coordinates": [77.2270, 28.6003] } }
  ]
}
